PROGRESS-MS 32          
1 65586U 25204A   25309.90547127  .00011147  00000+0  20455-3 0  9999
2 65586  51.6335 324.8242 0005105  21.4827 338.6376 15.49778705   273
CYGNUS NG-23            
1 65616U 25208A   25309.90547127  .00011147  00000+0  20455-3 0  9997
2 65616  51.6335 324.8242 0005105  21.4827 338.6376 15.49778705   222
DRAGONFLY               
1 65729U 98067XH  25309.20984679  .00098389  00000+0  11678-2 0  9994
2 65729  51.6310 326.1839 0003888  80.0832 280.0600 15.60384423  7286
1998-067XJ              
1 65730U 98067XJ  25309.28668827  .00292770  00000+0  23066-2 0  9992
2 65730  51.6282 324.4378 0011166  60.9839 299.2276 15.69925383  7317
1998-067XK              
1 65731U 98067XK  25309.30335302  .00068128  00000+0  88372-3 0  9995
2 65731  51.6322 326.0589 0005189  57.6861 302.4633 15.58195307  7295
RSP-03                  
1 65732U 98067XL  25309.28895836  .00082002  00000+0  10185-2 0  9999
2 65732  51.6304 325.9620 0005973  59.3641 300.7940 15.59262925  7302
GHS-01                  
1 65733U 98067XM  25309.58392408  .00113496  00000+0  12996-2 0  9994
2 65733  51.6317 324.1826 0004350  78.3467 281.8014 15.61251182  7353
YOTSUBA-KULOVER         
1 65941U 98067XN  25309.92554627  .00062949  00000+0  96390-3 0  9993
2 65941  51.6321 324.2103 0002677  11.9146 348.1907 15.53744845  4129
BOTAN                   
1 65942U 98067XP  25309.91695397  .00084394  00000+0  12391-2 0  9999
2 65942  51.6321 324.1537 0004862  26.7714 333.3527 15.54763636  4127
E-KAGAKU-1              
1 65943U 98067XQ  25309.47487028  .00055785  00000+0  85730-3 0  9991
2 65943  51.6326 326.4510 0004385  13.9907 346.1204 15.53691300  4054
HRC MONOBLOCK CAMERA    
1 66052U 98067XR  25309.57414861  .00032219  00000+0  55254-3 0  9994
2 66052  51.6323 326.3613 0004608  30.7164 329.4094 15.50883817  3060
HTV-X1                  
1 66174U 25241A   25309.90547127  .00011147  00000+0  20455-3 0  9994
2 66174  51.6335 324.8242 0005105  21.4827 338.6376 15.49778705  1458
