CCSDS_OMM_VERS = 2.0
CREATION_DATE  = 
ORIGINATOR     = 

OBJECT_NAME    = PROGRESS-MS 32
OBJECT_ID      = 2025-204A
CENTER_NAME    = EARTH
REF_FRAME      = TEME
TIME_SYSTEM    = UTC
MEAN_ELEMENT_THEORY = SGP/SGP4

EPOCH          = 2025-11-05T21:43:52.717728
MEAN_MOTION    = 15.49778705
ECCENTRICITY   = .00051051
INCLINATION    = 51.6335
RA_OF_ASC_NODE = 324.8242
ARG_OF_PERICENTER = 21.4827
MEAN_ANOMALY   = 338.6376

EPHEMERIS_TYPE = 0
CLASSIFICATION_TYPE = U
NORAD_CAT_ID   = 65586
ELEMENT_SET_NO = 999
REV_AT_EPOCH   = 27
BSTAR          = .20455211E-3
MEAN_MOTION_DOT = .11147E-3
MEAN_MOTION_DDOT = 0

CCSDS_OMM_VERS = 2.0
CREATION_DATE  = 
ORIGINATOR     = 

OBJECT_NAME    = CYGNUS NG-23
OBJECT_ID      = 2025-208A
CENTER_NAME    = EARTH
REF_FRAME      = TEME
TIME_SYSTEM    = UTC
MEAN_ELEMENT_THEORY = SGP/SGP4

EPOCH          = 2025-11-05T21:43:52.717728
MEAN_MOTION    = 15.49778705
ECCENTRICITY   = .00051051
INCLINATION    = 51.6335
RA_OF_ASC_NODE = 324.8242
ARG_OF_PERICENTER = 21.4827
MEAN_ANOMALY   = 338.6376

EPHEMERIS_TYPE = 0
CLASSIFICATION_TYPE = U
NORAD_CAT_ID   = 65616
ELEMENT_SET_NO = 999
REV_AT_EPOCH   = 22
BSTAR          = .20455211E-3
MEAN_MOTION_DOT = .11147E-3
MEAN_MOTION_DDOT = 0

CCSDS_OMM_VERS = 2.0
CREATION_DATE  = 
ORIGINATOR     = 

OBJECT_NAME    = DRAGONFLY
OBJECT_ID      = 1998-067XH
CENTER_NAME    = EARTH
REF_FRAME      = TEME
TIME_SYSTEM    = UTC
MEAN_ELEMENT_THEORY = SGP/SGP4

EPOCH          = 2025-11-05T05:02:10.762656
MEAN_MOTION    = 15.60384423
ECCENTRICITY   = .00038882
INCLINATION    = 51.6310
RA_OF_ASC_NODE = 326.1839
ARG_OF_PERICENTER = 80.0832
MEAN_ANOMALY   = 280.0600

EPHEMERIS_TYPE = 0
CLASSIFICATION_TYPE = U
NORAD_CAT_ID   = 65729
ELEMENT_SET_NO = 999
REV_AT_EPOCH   = 728
BSTAR          = .11677881E-2
MEAN_MOTION_DOT = .98389E-3
MEAN_MOTION_DDOT = 0

CCSDS_OMM_VERS = 2.0
CREATION_DATE  = 
ORIGINATOR     = 

OBJECT_NAME    = 1998-067XJ
OBJECT_ID      = 1998-067XJ
CENTER_NAME    = EARTH
REF_FRAME      = TEME
TIME_SYSTEM    = UTC
MEAN_ELEMENT_THEORY = SGP/SGP4

EPOCH          = 2025-11-05T06:52:49.866528
MEAN_MOTION    = 15.69925383
ECCENTRICITY   = .00111666
INCLINATION    = 51.6282
RA_OF_ASC_NODE = 324.4378
ARG_OF_PERICENTER = 60.9839
MEAN_ANOMALY   = 299.2276

EPHEMERIS_TYPE = 0
CLASSIFICATION_TYPE = U
NORAD_CAT_ID   = 65730
ELEMENT_SET_NO = 999
REV_AT_EPOCH   = 731
BSTAR          = .23066031E-2
MEAN_MOTION_DOT = .29277E-2
MEAN_MOTION_DDOT = 0

CCSDS_OMM_VERS = 2.0
CREATION_DATE  = 
ORIGINATOR     = 

OBJECT_NAME    = 1998-067XK
OBJECT_ID      = 1998-067XK
CENTER_NAME    = EARTH
REF_FRAME      = TEME
TIME_SYSTEM    = UTC
MEAN_ELEMENT_THEORY = SGP/SGP4

EPOCH          = 2025-11-05T07:16:49.700928
MEAN_MOTION    = 15.58195307
ECCENTRICITY   = .00051896
INCLINATION    = 51.6322
RA_OF_ASC_NODE = 326.0589
ARG_OF_PERICENTER = 57.6861
MEAN_ANOMALY   = 302.4633

EPHEMERIS_TYPE = 0
CLASSIFICATION_TYPE = U
NORAD_CAT_ID   = 65731
ELEMENT_SET_NO = 999
REV_AT_EPOCH   = 729
BSTAR          = .883721E-3
MEAN_MOTION_DOT = .68128E-3
MEAN_MOTION_DDOT = 0

CCSDS_OMM_VERS = 2.0
CREATION_DATE  = 
ORIGINATOR     = 

OBJECT_NAME    = RSP-03
OBJECT_ID      = 1998-067XL
CENTER_NAME    = EARTH
REF_FRAME      = TEME
TIME_SYSTEM    = UTC
MEAN_ELEMENT_THEORY = SGP/SGP4

EPOCH          = 2025-11-05T06:56:06.002304
MEAN_MOTION    = 15.59262925
ECCENTRICITY   = .00059737
INCLINATION    = 51.6304
RA_OF_ASC_NODE = 325.9620
ARG_OF_PERICENTER = 59.3641
MEAN_ANOMALY   = 300.7940

EPHEMERIS_TYPE = 0
CLASSIFICATION_TYPE = U
NORAD_CAT_ID   = 65732
ELEMENT_SET_NO = 999
REV_AT_EPOCH   = 730
BSTAR          = .10184553E-2
MEAN_MOTION_DOT = .82002E-3
MEAN_MOTION_DDOT = 0

CCSDS_OMM_VERS = 2.0
CREATION_DATE  = 
ORIGINATOR     = 

OBJECT_NAME    = GHS-01
OBJECT_ID      = 1998-067XM
CENTER_NAME    = EARTH
REF_FRAME      = TEME
TIME_SYSTEM    = UTC
MEAN_ELEMENT_THEORY = SGP/SGP4

EPOCH          = 2025-11-05T14:00:51.040512
MEAN_MOTION    = 15.61251182
ECCENTRICITY   = .00043509
INCLINATION    = 51.6317
RA_OF_ASC_NODE = 324.1826
ARG_OF_PERICENTER = 78.3467
MEAN_ANOMALY   = 281.8014

EPHEMERIS_TYPE = 0
CLASSIFICATION_TYPE = U
NORAD_CAT_ID   = 65733
ELEMENT_SET_NO = 999
REV_AT_EPOCH   = 735
BSTAR          = .12995642E-2
MEAN_MOTION_DOT = .113496E-2
MEAN_MOTION_DDOT = 0

CCSDS_OMM_VERS = 2.0
CREATION_DATE  = 
ORIGINATOR     = 

OBJECT_NAME    = YOTSUBA-KULOVER
OBJECT_ID      = 1998-067XN
CENTER_NAME    = EARTH
REF_FRAME      = TEME
TIME_SYSTEM    = UTC
MEAN_ELEMENT_THEORY = SGP/SGP4

EPOCH          = 2025-11-05T22:12:47.197728
MEAN_MOTION    = 15.53744845
ECCENTRICITY   = .00026771
INCLINATION    = 51.6321
RA_OF_ASC_NODE = 324.2103
ARG_OF_PERICENTER = 11.9146
MEAN_ANOMALY   = 348.1907

EPHEMERIS_TYPE = 0
CLASSIFICATION_TYPE = U
NORAD_CAT_ID   = 65941
ELEMENT_SET_NO = 999
REV_AT_EPOCH   = 412
BSTAR          = .96390004E-3
MEAN_MOTION_DOT = .62949E-3
MEAN_MOTION_DDOT = 0

CCSDS_OMM_VERS = 2.0
CREATION_DATE  = 
ORIGINATOR     = 

OBJECT_NAME    = BOTAN
OBJECT_ID      = 1998-067XP
CENTER_NAME    = EARTH
REF_FRAME      = TEME
TIME_SYSTEM    = UTC
MEAN_ELEMENT_THEORY = SGP/SGP4

EPOCH          = 2025-11-05T22:00:24.823008
MEAN_MOTION    = 15.54763636
ECCENTRICITY   = .0004862
INCLINATION    = 51.6321
RA_OF_ASC_NODE = 324.1537
ARG_OF_PERICENTER = 26.7714
MEAN_ANOMALY   = 333.3527

EPHEMERIS_TYPE = 0
CLASSIFICATION_TYPE = U
NORAD_CAT_ID   = 65942
ELEMENT_SET_NO = 999
REV_AT_EPOCH   = 412
BSTAR          = .1239078E-2
MEAN_MOTION_DOT = .84394E-3
MEAN_MOTION_DDOT = 0

CCSDS_OMM_VERS = 2.0
CREATION_DATE  = 
ORIGINATOR     = 

OBJECT_NAME    = E-KAGAKU-1
OBJECT_ID      = 1998-067XQ
CENTER_NAME    = EARTH
REF_FRAME      = TEME
TIME_SYSTEM    = UTC
MEAN_ELEMENT_THEORY = SGP/SGP4

EPOCH          = 2025-11-05T11:23:48.792192
MEAN_MOTION    = 15.53691300
ECCENTRICITY   = .00043857
INCLINATION    = 51.6326
RA_OF_ASC_NODE = 326.4510
ARG_OF_PERICENTER = 13.9907
MEAN_ANOMALY   = 346.1204

EPHEMERIS_TYPE = 0
CLASSIFICATION_TYPE = U
NORAD_CAT_ID   = 65943
ELEMENT_SET_NO = 999
REV_AT_EPOCH   = 405
BSTAR          = .85729517E-3
MEAN_MOTION_DOT = .55785E-3
MEAN_MOTION_DDOT = 0

CCSDS_OMM_VERS = 2.0
CREATION_DATE  = 
ORIGINATOR     = 

OBJECT_NAME    = HRC MONOBLOCK CAMERA
OBJECT_ID      = 1998-067XR
CENTER_NAME    = EARTH
REF_FRAME      = TEME
TIME_SYSTEM    = UTC
MEAN_ELEMENT_THEORY = SGP/SGP4

EPOCH          = 2025-11-05T13:46:46.439904
MEAN_MOTION    = 15.50883817
ECCENTRICITY   = .0004608
INCLINATION    = 51.6323
RA_OF_ASC_NODE = 326.3613
ARG_OF_PERICENTER = 30.7164
MEAN_ANOMALY   = 329.4094

EPHEMERIS_TYPE = 0
CLASSIFICATION_TYPE = U
NORAD_CAT_ID   = 66052
ELEMENT_SET_NO = 999
REV_AT_EPOCH   = 306
BSTAR          = .55254226E-3
MEAN_MOTION_DOT = .32219E-3
MEAN_MOTION_DDOT = 0

CCSDS_OMM_VERS = 2.0
CREATION_DATE  = 
ORIGINATOR     = 

OBJECT_NAME    = HTV-X1
OBJECT_ID      = 2025-241A
CENTER_NAME    = EARTH
REF_FRAME      = TEME
TIME_SYSTEM    = UTC
MEAN_ELEMENT_THEORY = SGP/SGP4

EPOCH          = 2025-11-05T21:43:52.717728
MEAN_MOTION    = 15.49778705
ECCENTRICITY   = .00051051
INCLINATION    = 51.6335
RA_OF_ASC_NODE = 324.8242
ARG_OF_PERICENTER = 21.4827
MEAN_ANOMALY   = 338.6376

EPHEMERIS_TYPE = 0
CLASSIFICATION_TYPE = U
NORAD_CAT_ID   = 66174
ELEMENT_SET_NO = 999
REV_AT_EPOCH   = 145
BSTAR          = .20455211E-3
MEAN_MOTION_DOT = .11147E-3
MEAN_MOTION_DDOT = 0

